[{"OBJECT_NAME":"STARLINK-31032","OBJECT_ID":"2023-192E","EPOCH":"2026-03-09T06:42:10.274112","MEAN_MOTION":15.30202083,"ECCENTRICITY":0.00014918,"INCLINATION":53.1623,"RA_OF_ASC_NODE":64.5659,"ARG_OF_PERICENTER":87.9905,"MEAN_ANOMALY":272.1267,"EPHEMERIS_TYPE":0,"CLASSIFICATION_TYPE":"U","NORAD_CAT_ID":58535,"ELEMENT_SET_NO":999,"REV_AT_EPOCH":12592,"BSTAR":9.3541556e-5,"MEAN_MOTION_DOT":2.412e-5,"MEAN_MOTION_DDOT":0},{"OBJECT_NAME":"NUSAT-48 (HENRIETTA LEAVITT)","OBJECT_ID":"2024-149AG","EPOCH":"2026-03-09T19:19:17.269536","MEAN_MOTION":15.29812597,"ECCENTRICITY":0.00027538,"INCLINATION":97.3923,"RA_OF_ASC_NODE":150.8264,"ARG_OF_PERICENTER":263.3026,"MEAN_ANOMALY":96.7901,"EPHEMERIS_TYPE":0,"CLASSIFICATION_TYPE":"U","NORAD_CAT_ID":60498,"ELEMENT_SET_NO":999,"REV_AT_EPOCH":8694,"BSTAR":0.00045211745,"MEAN_MOTION_DOT":0.00012988,"MEAN_MOTION_DDOT":0}]
